[{"OBJECT_NAME":"STARLINK-2338","OBJECT_ID":"2021-018G","EPOCH":"2026-03-09T17:13:02.131392","MEAN_MOTION":15.06405037,"ECCENTRICITY":0.00014277,"INCLINATION":53.0568,"RA_OF_ASC_NODE":231.4941,"ARG_OF_PERICENTER":85.5695,"MEAN_ANOMALY":274.5457,"EPHEMERIS_TYPE":0,"CLASSIFICATION_TYPE":"U","NORAD_CAT_ID":47793,"ELEMENT_SET_NO":999,"REV_AT_EPOCH":27687,"BSTAR":-2.4795202e-5,"MEAN_MOTION_DOT":-6.51e-6,"MEAN_MOTION_DDOT":0},{"OBJECT_NAME":"CZ-4C R\/B","OBJECT_ID":"2018-043B","EPOCH":"2026-03-09T16:58:49.840320","MEAN_MOTION":14.86896347,"ECCENTRICITY":0.00868429,"INCLINATION":98.1687,"RA_OF_ASC_NODE":134.0913,"ARG_OF_PERICENTER":153.5979,"MEAN_ANOMALY":206.9701,"EPHEMERIS_TYPE":0,"CLASSIFICATION_TYPE":"U","NORAD_CAT_ID":43462,"ELEMENT_SET_NO":999,"REV_AT_EPOCH":42398,"BSTAR":0.00015965796,"MEAN_MOTION_DOT":1.463e-5,"MEAN_MOTION_DDOT":0}]
